NORAD_CAT_ID,OBJECT_NAME,OBJECT_TYPE,EPOCH,MEAN_MOTION,ECCENTRICITY,INCLINATION,RA_OF_ASC_NODE,ARG_OF_PERICENTER,MEAN_ANOMALY,BSTAR,MEAN_MOTION_DOT,MEAN_MOTION_DDOT,TLE_LINE0,TLE_LINE1,TLE_LINE2,SEMIMAJOR_AXIS,PERIOD,APOGEE,PERIGEE,DECAYED
55763.0,STARLINK-5593,PAYLOAD,2024-08-13 05:14:03,14.98329984,0.0003639,69.998,250.2214,268.8414,91.2328,3.3291e-05,3.04e-06,0.0,0 STARLINK-5593,1 55763U 23028Y   24226.21809981  .00000304  00000-0  33291-4 0  9994,2 55763  69.9980 250.2214 0003639 268.8414  91.2328 14.98329984 80144,6950.193,96.107,574.587,569.529,0.0
55763.0,STARLINK-5593,PAYLOAD,2024-08-13 10:02:27,14.98333287,0.0003464,69.9979,249.716,265.6844,94.392,6.1566e-05,6.42e-06,0.0,0 STARLINK-5593,1 55763U 23028Y   24226.41837656  .00000642  00000-0  61566-4 0  9997,2 55763  69.9979 249.7160 0003464 265.6844  94.3920 14.98333287 80179,6950.183,96.107,574.455,569.64,0.0
55763.0,STARLINK-5593,PAYLOAD,2024-08-14 05:16:05,14.98320679,0.0003608,69.9976,247.694,275.2889,84.7858,-8.8733e-05,-1.151e-05,0.0,0 STARLINK-5593,1 55763U 23028Y   24227.21951075 -.00001151  00000-0 -88733-4 0  9991,2 55763  69.9976 247.6940 0003608 275.2889  84.7858 14.98320679 80292,6950.222,96.108,574.594,569.579,0.0
55763.0,STARLINK-5593,PAYLOAD,2024-08-14 11:40:38,14.98315151,0.0003585,69.9982,247.0228,270.1256,89.9492,-9.7909e-05,-1.261e-05,0.0,0 STARLINK-5593,1 55763U 23028Y   24227.48655578 -.00001261  00000-0 -97909-4 0  9996,2 55763  69.9982 247.0228 0003585 270.1256  89.9492 14.98315151 80333,6950.239,96.108,574.595,569.612,0.0
55763.0,STARLINK-5593,PAYLOAD,2024-08-14 18:05:10,14.98324818,0.0003725,69.9977,246.3484,272.9983,87.075,-0.00012577,-1.593e-05,0.0,0 STARLINK-5593,1 55763U 23028Y   24227.75359150 -.00001593  00000-0 -12577-3 0  9998,2 55763  69.9977 246.3484 0003725 272.9983  87.0750 14.98324818 80376,6950.209,96.107,574.663,569.485,0.0
55763.0,STARLINK-5593,PAYLOAD,2024-08-15 10:06:31,14.9832414,0.0003435,69.9976,244.666,266.4934,93.5832,-2.2576e-05,-3.62e-06,0.0,0 STARLINK-5593,1 55763U 23028Y   24228.42119316 -.00000362  00000-0 -22576-4 0  9995,2 55763  69.9976 244.6660 0003435 266.4934  93.5832 14.98324140 80476,6950.211,96.107,574.463,569.689,0.0
55763.0,STARLINK-5593,PAYLOAD,2024-08-15 18:07:11,14.98304493,0.0003412,69.9978,243.8239,269.1074,90.9694,0.00038933,4.552e-05,0.0,0 STARLINK-5593,1 55763U 23028Y   24228.75499870  .00004552  00000-0  38933-3 0  9993,2 55763  69.9978 243.8239 0003412 269.1074  90.9694 14.98304493 80523,6950.272,96.109,574.508,569.765,0.0
55763.0,STARLINK-5593,PAYLOAD,2024-08-16 03:43:59,14.98324621,0.0003457,69.9974,242.8133,275.2264,84.85,0.00020857,2.396e-05,0.0,0 STARLINK-5593,1 55763U 23028Y   24229.15555047  .00002396  00000-0  20857-3 0  9997,2 55763  69.9974 242.8133 0003457 275.2264  84.8500 14.98324621 80588,6950.21,96.107,574.477,569.672,0.0
55763.0,STARLINK-5593,PAYLOAD,2024-08-16 10:08:29,14.98347224,0.0003757,69.9977,242.1409,272.6587,87.4141,0.00043103,5.056e-05,0.0,0 STARLINK-5593,1 55763U 23028Y   24229.42256874  .00005056  00000-0  43103-3 0  9998,2 55763  69.9977 242.1409 0003757 272.6587  87.4141 14.98347224 80621,6950.14,96.106,574.616,569.393,0.0
55763.0,STARLINK-5593,PAYLOAD,2024-08-16 19:45:18,14.98335942,0.000362,70.0002,241.1322,257.991,102.0843,0.00032851,3.83e-05,0.0,0 STARLINK-5593,1 55763U 23028Y   24229.82313525  .00003830  00000-0  32851-3 0  9995,2 55763  70.0002 241.1322 0003620 257.9910 102.0843 14.98335942 80684,6950.175,96.107,574.555,569.524,0.0
55763.0,STARLINK-5593,PAYLOAD,2024-08-17 03:46:00,14.98328687,0.0003847,69.9976,240.2896,270.1405,89.9313,8.3814e-05,9.07e-06,0.0,0 STARLINK-5593,1 55763U 23028Y   24230.15694551  .00000907  00000-0  83814-4 0  9992,2 55763  69.9976 240.2896 0003847 270.1405  89.9313 14.98328687 80733,6950.197,96.107,574.736,569.388,0.0
55763.0,STARLINK-5593,PAYLOAD,2024-08-17 06:58:16,14.98331453,0.0004113,69.9969,239.9533,270.5585,89.5103,4.5457e-05,4.49e-06,0.0,0 STARLINK-5593,1 55763U 23028Y   24230.29046460  .00000449  00000-0  45457-4 0  9999,2 55763  69.9969 239.9533 0004113 270.5585  89.5103 14.98331453 80758,6950.188,96.107,574.912,569.195,0.0
55763.0,STARLINK-5593,PAYLOAD,2024-08-18 03:48:00,14.98331044,0.0003781,69.9981,237.7642,268.2978,91.7747,-1.7228e-06,-1.14e-06,0.0,0 STARLINK-5593,1 55763U 23028Y   24231.15834330 -.00000114  00000-0 -17228-5 0  9993,2 55763  69.9981 237.7642 0003781 268.2978  91.7747 14.98331044 80888,6950.19,96.107,574.683,569.427,0.0
55763.0,STARLINK-5593,PAYLOAD,2024-08-18 05:24:08,14.9833057,0.0003803,69.9982,237.5959,268.1436,91.9287,4.6007e-07,-8.8e-07,0.0,0 STARLINK-5593,1 55763U 23028Y   24231.22510334 -.00000088  00000-0  46007-6 0  9993,2 55763  69.9982 237.5959 0003803 268.1436  91.9287 14.98330570 80896,6950.191,96.107,574.699,569.413,0.0
55763.0,STARLINK-5593,PAYLOAD,2024-08-18 10:12:32,14.98344544,0.0003735,69.9983,237.0915,269.0918,90.9813,-0.00020211,-2.505e-05,0.0,0 STARLINK-5593,1 55763U 23028Y   24231.42537886 -.00002505  00000-0 -20211-3 0  9999,2 55763  69.9983 237.0915 0003735 269.0918  90.9813 14.98344544 80927,6950.148,96.106,574.609,569.417,0.0
55763.0,STARLINK-5593,PAYLOAD,2024-08-19 03:50:01,14.98326892,0.0003719,69.9984,235.2396,266.8529,93.2204,-1.3042e-05,-2.49e-06,0.0,0 STARLINK-5593,1 55763U 23028Y   24232.15974167 -.00000249  00000-0 -13042-4 0  9995,2 55763  69.9984 235.2396 0003719 266.8529  93.2204 14.98326892 81035,6950.203,96.107,574.652,569.483,0.0
55763.0,STARLINK-5593,PAYLOAD,2024-08-19 10:14:33,14.98328568,0.0003711,69.9985,234.5666,267.5493,92.5241,-8.8015e-06,-1.98e-06,0.0,0 STARLINK-5593,1 55763U 23028Y   24232.42678091 -.00000198  00000-0 -88015-5 0  9998,2 55763  69.9985 234.5666 0003711 267.5493  92.5241 14.98328568 81077,6950.197,96.107,574.642,569.483,0.0
55763.0,STARLINK-5593,PAYLOAD,2024-08-20 03:52:02,14.98332119,0.0003683,69.9987,232.7148,267.9021,92.1716,6.5242e-05,6.85e-06,0.0,0 STARLINK-5593,1 55763U 23028Y   24233.16113691  .00000685  00000-0  65242-4 0  9995,2 55763  69.9987 232.7148 0003683 267.9021  92.1716 14.98332119 81185,6950.186,96.107,574.611,569.492,0.0
55763.0,STARLINK-5593,PAYLOAD,2024-08-20 10:16:34,14.98334113,0.0003671,69.9988,232.0413,268.2068,91.867,8.4582e-05,9.16e-06,0.0,0 STARLINK-5593,1 55763U 23028Y   24233.42817486  .00000916  00000-0  84582-4 0  9992,2 55763  69.9988 232.0413 0003671 268.2068  91.8670 14.98334113 81222,6950.18,96.107,574.597,569.494,0.0
55763.0,STARLINK-5593,PAYLOAD,2024-08-21 03:54:03,14.98328257,0.0003595,69.999,230.1898,267.9205,92.1543,4.5547e-05,4.5e-06,0.0,0 STARLINK-5593,1 55763U 23028Y   24234.16253951  .00000450  00000-0  45547-4 0  9996,2 55763  69.9990 230.1898 0003595 267.9205  92.1543 14.98328257 81332,6950.198,96.107,574.562,569.565,0.0
55763.0,STARLINK-5593,PAYLOAD,2024-08-21 08:42:27,14.98329393,0.0003578,69.9991,229.685,267.8037,92.2712,5.5475e-05,5.69e-06,0.0,0 STARLINK-5593,1 55763U 23028Y   24234.36281865  .00000569  00000-0  55475-4 0  9995,2 55763  69.9991 229.6850 0003578 267.8037  92.2712 14.98329393 81361,6950.195,96.107,574.547,569.573,0.0
55763.0,STARLINK-5593,PAYLOAD,2024-08-22 05:32:12,14.98328873,0.0003503,69.9994,227.4969,268.0788,91.997,-3.3879e-05,-4.97e-06,0.0,0 STARLINK-5593,1 55763U 23028Y   24235.23070164 -.00000497  00000-0 -33879-4 0  9996,2 55763  69.9994 227.4969 0003503 268.0788  91.9970 14.98328873 81493,6950.196,96.107,574.496,569.627,0.0
